{
  "type": "FeatureCollection",
  "features": [
    {
      "type": "Feature",
      "properties": {
        "retailer": "Big Chief LA",
        "license": "C10-0001599-LIC",
        "address1": "1700 Silver Lake Blvd",
        "address2": "",
        "city": "Los Angeles",
        "state": "CA",
        "zip": "90026",
        "directionUrl": "https://maps.app.goo.gl/pksX4A3qCHqmpeABA",
        "storeUrl": "https://weedmaps.com/dispensaries/big-chief-cannabis-dispensary?filter%5Bmatch%5D=wizard-trees"
      },
      "geometry": {
        "type": "Point",
        "coordinates": [
          -118.26829177116417,
          34.08952188989419
        ]
      }
    },
    {
      "type": "Feature",
      "properties": {
        "retailer": "Catalyst Silver Lake",
        "license": "C10-0000921-LIC",
        "address1": "2334 Fletcher Dr",
        "address2": "",
        "city": "Los Angeles",
        "state": "CA",
        "zip": "90039",
        "directionUrl": "https://maps.app.goo.gl/5WYwv46ucYzkyTib9",
        "storeUrl": "https://weedmaps.com/dispensaries/catalyst-silver-lake?filter%5Bmatch%5D=wizard-trees"
      },
      "geometry": {
        "type": "Point",
        "coordinates": [
          -118.25788349289196,
          34.104866572435995
        ]
      }
    },
    {
      "type": "Feature",
      "properties": {
        "retailer": "Flora",
        "license": "C10-0000530-LIC",
        "address1": "8151 3rd St W",
        "address2": "",
        "city": "Los Angeles",
        "state": "CA",
        "zip": "90048",
        "directionUrl": "https://maps.app.goo.gl/s3zrU14atvcBUWrq7",
        "storeUrl": ""
      },
      "geometry": {
        "type": "Point",
        "coordinates": [
          -118.3670307505636,
          34.072609409008145
        ]
      }
    },
    {
      "type": "Feature",
      "properties": {
        "retailer": "Goat Global Westwood",
        "license": "C10-0000600-LIC",
        "address1": "2299 S Westwood Blvd",
        "address2": "",
        "city": "Los Angeles",
        "state": "CA",
        "zip": "90064",
        "directionUrl": "https://maps.app.goo.gl/TaFnM493dAEYULz39",
        "storeUrl": "https://weedmaps.com/dispensaries/westwood-world-llc?filter%5Bmatch%5D=wizard-trees"
      },
      "geometry": {
        "type": "Point",
        "coordinates": [
          -118.43078306590695,
          34.04255873267134
        ]
      }
    },
    {
      "type": "Feature",
      "properties": {
        "retailer": "SWED A Snoop Dogg Store",
        "license": "C10-0000756-LIC",
        "address1": "5494 W Centinela Ave",
        "address2": "",
        "city": "Los Angeles",
        "state": "CA",
        "zip": "90045",
        "directionUrl": "https://maps.app.goo.gl/7guJDrkzP9ioKPUY8",
        "storeUrl": ""
      },
      "geometry": {
        "type": "Point",
        "coordinates": [
          -118.37626257754859,
          33.97691486139813
        ]
      }
    },
    {
      "type": "Feature",
      "properties": {
        "retailer": "Xzibit's West Coast Cannabis Bel Air",
        "license": "C10-0000616-LIC",
        "address1": "641 Sepulveda Blvd N",
        "address2": "",
        "city": "Los Angeles",
        "state": "CA",
        "zip": "90049",
        "directionUrl": "https://maps.app.goo.gl/5CXwBAiNdncLaF8L9",
        "storeUrl": "https://weedmaps.com/dispensaries/cwd-alliance?filter%5Bmatch%5D=wizard-trees"
      },
      "geometry": {
        "type": "Point",
        "coordinates": [
          -118.4690558662023,
          34.076963244449615
        ]
      }
    },
    {
      "type": "Feature",
      "properties": {
        "retailer": "1841 El Camino (Horizon Collective Inc)",
        "license": "C10-0000009-LIC",
        "address1": "1841 El Camino Ave",
        "address2": "",
        "city": "Sacramento",
        "state": "CA",
        "zip": "95815",
        "directionUrl": "https://maps.app.goo.gl/dMoWhMsEEzvVDUUFA",
        "storeUrl": "https://weedmaps.com/dispensaries/1841-el-camino?filter%5Bmatch%5D=wizard-trees"
      },
      "geometry": {
        "type": "Point",
        "coordinates": [
          -121.42341872171345,
          38.6114789330746
        ]
      }
    },
    {
      "type": "Feature",
      "properties": {
        "retailer": "Earthman Delivery (MRKHUUGUY LLC)",
        "license": "C9-0000754-LIC",
        "address1": "5360 South Watt Ave",
        "address2": "Suite 110F",
        "city": "Sacramento",
        "state": "CA",
        "zip": "95826",
        "directionUrl": "https://maps.app.goo.gl/eEQzndsuDu4mtFHx5",
        "storeUrl": "https://www.earthmanexperience.com/"
      },
      "geometry": {
        "type": "Point",
        "coordinates": [
          -121.37112854232821,
          38.527614572012176
        ]
      }
    },
    {
      "type": "Feature",
      "properties": {
        "retailer": "Mainstage Sacramento (Greenstone Biomass Research LLC)",
        "license": "C10-0000574-LIC",
        "address1": "2320 Broadway",
        "address2": "",
        "city": "Sacramento",
        "state": "CA",
        "zip": "95818",
        "directionUrl": "https://maps.app.goo.gl/FjNB7ZhCHXy9hGBF8",
        "storeUrl": "https://weedmaps.com/dispensaries/mainstage?filter%5Bmatch%5D=wizard-trees"
      },
      "geometry": {
        "type": "Point",
        "coordinates": [
          -121.48249706404167,
          38.55884445464493
        ]
      }
    },
    {
      "type": "Feature",
      "properties": {
        "retailer": "The Pocket Dispensary (Mind Inc.)",
        "license": "C10-0001156-LIC",
        "address1": "1195 Florin Rd",
        "address2": "Suite 5 & 6",
        "city": "Sacramento",
        "state": "CA",
        "zip": "95831",
        "directionUrl": "https://maps.app.goo.gl/tuvHcju7GPd71Sdh7",
        "storeUrl": "https://weedmaps.com/dispensaries/the-pocket-dispensary?filter%5Bmatch%5D=wizard-trees"
      },
      "geometry": {
        "type": "Point",
        "coordinates": [
          -121.51261967116409,
          38.496252644561146
        ]
      }
    },
    {
      "type": "Feature",
      "properties": {
        "retailer": "Zen Garden South Sac (Sacramento King Equity Ventures LLC)",
        "license": "C10-0001046-LIC",
        "address1": "7909 Bruceville Rd",
        "address2": "",
        "city": "Sacramento",
        "state": "CA",
        "zip": "95823",
        "directionUrl": "https://maps.app.goo.gl/Cp1X5nWB3mBm6kGN8",
        "storeUrl": "https://weedmaps.com/dispensaries/zen-garden-south-sacramento?filter%5Bmatch%5D=wizard-trees"
      },
      "geometry": {
        "type": "Point",
        "coordinates": [
          -121.42575862569859,
          38.4714335978959
        ]
      }
    },
    {
      "type": "Feature",
      "properties": {
        "retailer": "CA Collective (NTZ Inc)",
        "license": "C10-0000255-LIC",
        "address1": "210 Phelan Ave",
        "address2": "",
        "city": "San Jose",
        "state": "CA",
        "zip": "95112",
        "directionUrl": "https://maps.app.goo.gl/DeWP9zfTsdJSCC4j6",
        "storeUrl": "https://weedmaps.com/dispensaries/ca-collective?filter%5Bmatch%5D=wizard-trees"
      },
      "geometry": {
        "type": "Point",
        "coordinates": [
          -121.86689384898068,
          37.31238110214577
        ]
      }
    },
    {
      "type": "Feature",
      "properties": {
        "retailer": "Exotix San Jose (Lucrum Enterprises, Inc.)",
        "license": "C12-0000138-LIC",
        "address1": "1859 Little Orchard St",
        "address2": "",
        "city": "San Jose",
        "state": "CA",
        "zip": "95125",
        "directionUrl": "https://maps.app.goo.gl/adibJZ8huX1u8AsA6",
        "storeUrl": "https://weedmaps.com/dispensaries/exotix-weed-san-jose?filter%5Bmatch%5D=wizard-trees"
      },
      "geometry": {
        "type": "Point",
        "coordinates": [
          -121.87229664869807,
          37.304673607758225
        ]
      }
    },
    {
      "type": "Feature",
      "properties": {
        "retailer": "Purple Lotus Patient Center Downtown (VMK Inc)",
        "license": "C10-0001440-LIC",
        "address1": "66 West Santa Clara St",
        "address2": "",
        "city": "San Jose",
        "state": "CA",
        "zip": "95113",
        "directionUrl": "https://maps.app.goo.gl/j82PHZjEEQgzDRLG9",
        "storeUrl": "https://weedmaps.com/dispensaries/purple-lotus-downtown-san-jose-dispensary?filter%5Bmatch%5D=wizard-trees"
      },
      "geometry": {
        "type": "Point",
        "coordinates": [
          -121.8913300352058,
          37.3356331
        ]
      }
    },
    {
      "type": "Feature",
      "properties": {
        "retailer": "Purple Lotus Retail (VMK Inc)",
        "license": "C10-0000241-LIC",
        "address1": "752 Commercial St",
        "address2": "",
        "city": "San Jose",
        "state": "CA",
        "zip": "95112",
        "directionUrl": "https://maps.app.goo.gl/jUAfAZ4NKQMpBLH49",
        "storeUrl": "https://weedmaps.com/dispensaries/purple-lotus?filter%5Bmatch%5D=wizard-trees"
      },
      "geometry": {
        "type": "Point",
        "coordinates": [
          -121.89032309472883,
          37.36519318797823
        ]
      }
    },
    {
      "type": "Feature",
      "properties": {
        "retailer": "The Cake House San Jose (Bundy Canyon LLC)",
        "license": "C10-0001576-LIC",
        "address1": "1075 N 10 St",
        "address2": "",
        "city": "San Jose",
        "state": "CA",
        "zip": "95112",
        "directionUrl": "https://maps.app.goo.gl/NSSpcgGmeHQ8sGbg9",
        "storeUrl": "https://weedmaps.com/dispensaries/the-cake-house-san-jose?filter%5Bmatch%5D=wizard-trees"
      },
      "geometry": {
        "type": "Point",
        "coordinates": [
          -121.89696144869805,
          37.3617536004572
        ]
      }
    },
    {
      "type": "Feature",
      "properties": {
        "retailer": "Purple Star MD (Purple Star MD Collective)",
        "license": "C10-0000133-LIC",
        "address1": "2520 Mission St",
        "address2": "",
        "city": "San Francisco",
        "state": "CA",
        "zip": "94110",
        "directionUrl": "https://maps.app.goo.gl/X5DKmMoYCwQvXK28A",
        "storeUrl": "https://weedmaps.com/dispensaries/purple-star-md?filter%5Bmatch%5D=wizard-trees"
      },
      "geometry": {
        "type": "Point",
        "coordinates": [
          -122.41907292171346,
          37.75675385375589
        ]
      }
    },
    {
      "type": "Feature",
      "properties": {
        "retailer": "The Burke Group (The Burke Group)",
        "license": "C11-0000990-LIC",
        "address1": "1500 Burke Ave",
        "address2": "Ste A",
        "city": "San Francisco",
        "state": "CA",
        "zip": "94124",
        "directionUrl": "https://maps.app.goo.gl/3in6nrm9UBrSRkjp9",
        "storeUrl": ""
      },
      "geometry": {
        "type": "Point",
        "coordinates": [
          -122.38472535026673,
          37.74425446085285
        ]
      }
    },
    {
      "type": "Feature",
      "properties": {
        "retailer": "The Green Door (MRNH)",
        "license": "C12-0000590-LIC",
        "address1": "843 Howard St",
        "address2": "",
        "city": "San Francisco",
        "state": "CA",
        "zip": "94103",
        "directionUrl": "https://maps.app.goo.gl/FabVUmXjcZbAo1ba6",
        "storeUrl": "https://weedmaps.com/dispensaries/green-door-sf?filter%5Bmatch%5D=wizard-trees"
      },
      "geometry": {
        "type": "Point",
        "coordinates": [
          -122.40355373705701,
          37.78244859197021
        ]
      }
    },
    {
      "type": "Feature",
      "properties": {
        "retailer": "Catalyst Santa Ana (HNHPC Inc)",
        "license": "C10-0000230-LIC",
        "address1": "2400 Pullman St",
        "address2": "Suite A",
        "city": "Santa Ana",
        "state": "CA",
        "zip": "92705",
        "directionUrl": "https://maps.app.goo.gl/XVRw9VK1PW9qKHoaA",
        "storeUrl": "https://weedmaps.com/dispensaries/catalyst-sa?filter%5Bmatch%5D=wizard-trees"
      },
      "geometry": {
        "type": "Point",
        "coordinates": [
          -117.84433627753398,
          33.71519485961006
        ]
      }
    },
    {
      "type": "Feature",
      "properties": {
        "retailer": "Evergreen (STPC Enterprises Inc)",
        "license": "C10-0000363-LIC",
        "address1": "1320 Edinger Ave E",
        "address2": "",
        "city": "Santa Ana",
        "state": "CA",
        "zip": "92705",
        "directionUrl": "https://maps.app.goo.gl/QpGYogmp1Q986T1S9",
        "storeUrl": "https://weedmaps.com/dispensaries/evergreen-santa-ana?filter%5Bmatch%5D=wizard-trees"
      },
      "geometry": {
        "type": "Point",
        "coordinates": [
          -117.85267403705701,
          33.726585562907594
        ]
      }
    },
    {
      "type": "Feature",
      "properties": {
        "retailer": "JadeRoom Santa Ana (The 10 Spot Inc)",
        "license": "C10-0000400-LIC",
        "address1": "2700 S Shannon St",
        "address2": "",
        "city": "Santa Ana",
        "state": "CA",
        "zip": "92704",
        "directionUrl": "https://maps.app.goo.gl/j1X4eNmGMddLCA5t7",
        "storeUrl": "https://weedmaps.com/dispensaries/jaderoom-oc?filter%5Bmatch%5D=wizard-trees"
      },
      "geometry": {
        "type": "Point",
        "coordinates": [
          -117.92300970822114,
          33.711311148359805
        ]
      }
    },
    {
      "type": "Feature",
      "properties": {
        "retailer": "The Cake House Santa Rosa (Stony Point Wellness)",
        "license": "C10-0001322-LIC",
        "address1": "411 Stony Point Rd",
        "address2": "",
        "city": "Santa Rosa",
        "state": "CA",
        "zip": "95401",
        "directionUrl": "https://maps.app.goo.gl/wd9eTzuRNPtPFicf9",
        "storeUrl": "https://weedmaps.com/dispensaries/the-cake-house-santa-rosa-1?filter%5Bmatch%5D=wizard-trees"
      },
      "geometry": {
        "type": "Point",
        "coordinates": [
          -122.74242229472883,
          38.432135352623334
        ]
      }
    },
    {
      "type": "Feature",
      "properties": {
        "retailer": "The Outpost (JVA Global Supplies LLC)",
        "license": "C10-0000799-LIC",
        "address1": "335 Ohair Ct",
        "address2": "",
        "city": "Santa Rosa",
        "state": "CA",
        "zip": "95407",
        "directionUrl": "https://maps.app.goo.gl/zcwJLLESkDasj6Eu9",
        "storeUrl": "https://weedmaps.com/dispensaries/the-outpost?filter%5Bmatch%5D=wizard-trees"
      },
      "geometry": {
        "type": "Point",
        "coordinates": [
          -122.72520907753396,
          38.404336776189076
        ]
      }
    },
    {
      "type": "Feature",
      "properties": {
        "retailer": "Catalyst Antioch",
        "license": "C10-0001618-LIC",
        "address1": "2625 Crow Court",
        "address2": "",
        "city": "Antioch",
        "state": "CA",
        "zip": "94509",
        "directionUrl": "https://maps.app.goo.gl/zJGRBBV2UTECP1xZ7",
        "storeUrl": "https://weedmaps.com/dispensaries/catalyst-antioch?filter%5Bmatch%5D=wizard-trees"
      },
      "geometry": {
        "type": "Point",
        "coordinates": [
          -121.84155199102628,
          38.009882546275804
        ]
      }
    },
    {
      "type": "Feature",
      "properties": {
        "retailer": "Higher Ground Baldwin Park [RD X CATALYST BALDWIN PARK LLC]",
        "license": "C10-0001441-LIC",
        "address1": "13467 Dalewood St",
        "address2": "",
        "city": "Baldwin Park",
        "state": "CA",
        "zip": "91706",
        "directionUrl": "https://maps.app.goo.gl/h6XncWChBrfTNGb8A",
        "storeUrl": "https://weedmaps.com/dispensaries/higher-ground-baldwin-park?filter%5Bmatch%5D=wizard-trees"
      },
      "geometry": {
        "type": "Point",
        "coordinates": [
          -117.98185467157369,
          34.067265505651626
        ]
      }
    },
    {
      "type": "Feature",
      "properties": {
        "retailer": "Catalyst Bellflower",
        "license": "C10-0001340-LIC",
        "address1": "9032 Artesia Blvd Ste 201",
        "address2": "Building B",
        "city": "Bellflower",
        "state": "CA",
        "zip": "90706",
        "directionUrl": "https://maps.app.goo.gl/GesSYpdp4HcXm8nb8",
        "storeUrl": "https://weedmaps.com/dispensaries/catalyst-bellflower?filter%5Bmatch%5D=wizard-trees"
      },
      "geometry": {
        "type": "Point",
        "coordinates": [
          -118.14158047157368,
          33.87488160103631
        ]
      }
    },
    {
      "type": "Feature",
      "properties": {
        "retailer": "Distro Depot",
        "license": "C11-0002033-LIC",
        "address1": "36650 Sunair Plaza",
        "address2": "",
        "city": "Cathedral City",
        "state": "CA",
        "zip": "92234",
        "directionUrl": "https://maps.app.goo.gl/EBDcJ3566RiWvyU56",
        "storeUrl": ""
      },
      "geometry": {
        "type": "Point",
        "coordinates": [
          -116.467955452118,
          33.78255369445353
        ]
      }
    },
    {
      "type": "Feature",
      "properties": {
        "retailer": "Caliwee Delivery",
        "license": "C9-0000034-LIC",
        "address1": "5855 Green Valley Cir",
        "address2": "Suite 105",
        "city": "Culver City",
        "state": "CA",
        "zip": "90230",
        "directionUrl": "https://maps.app.goo.gl/4EUpSQygTiPeRB1N6",
        "storeUrl": "https://content.caliwee.com/"
      },
      "geometry": {
        "type": "Point",
        "coordinates": [
          -118.38860248465643,
          33.98371016959159
        ]
      }
    },
    {
      "type": "Feature",
      "properties": {
        "retailer": "We Roll Up Culver City",
        "license": "C10-0001365-LIC",
        "address1": "11834 Jefferson Blvd",
        "address2": "",
        "city": "Culver City",
        "state": "CA",
        "zip": "90230",
        "directionUrl": "https://maps.app.goo.gl/YMso2cqkTsYfWxPv5",
        "storeUrl": "https://weedmaps.com/dispensaries/we-roll-up-la?filter%5Bmatch%5D=wizard-trees"
      },
      "geometry": {
        "type": "Point",
        "coordinates": [
          -118.40205764432632,
          33.98550874221304
        ]
      }
    },
    {
      "type": "Feature",
      "properties": {
        "retailer": "Catalyst Daly City",
        "license": "C10-0001231-LIC",
        "address1": "1000 King Dr",
        "address2": "",
        "city": "Daly City",
        "state": "CA",
        "zip": "94015",
        "directionUrl": "https://maps.app.goo.gl/6niNDCDFo9buhNmb6",
        "storeUrl": "https://weedmaps.com/dispensaries/catalyst-daly-city?filter%5Bmatch%5D=wizard-trees"
      },
      "geometry": {
        "type": "Point",
        "coordinates": [
          -122.46961202742521,
          37.650514090745574
        ]
      }
    },
    {
      "type": "Feature",
      "properties": {
        "retailer": "Cannaco Delivery",
        "license": "C12-0000343-LIC",
        "address1": "15872 Little Morongo Rd",
        "address2": "Suite 100 & 101",
        "city": "Desert Hot Springs",
        "state": "CA",
        "zip": "92240",
        "directionUrl": "https://maps.app.goo.gl/DC4dd41zxLSppATg8",
        "storeUrl": ""
      },
      "geometry": {
        "type": "Point",
        "coordinates": [
          -116.52528609257482,
          33.93276874401793
        ]
      }
    },
    {
      "type": "Feature",
      "properties": {
        "retailer": "Catalyst El Monte",
        "license": "C10-0000885-LIC",
        "address1": "12154 Valley Blvd",
        "address2": "",
        "city": "El Monte",
        "state": "CA",
        "zip": "91732",
        "directionUrl": "https://maps.app.goo.gl/mJEtSgUcGBhe4SaM6",
        "storeUrl": "https://weedmaps.com/dispensaries/catalyst-el-monte?filter%5Bmatch%5D=wizard-trees"
      },
      "geometry": {
        "type": "Point",
        "coordinates": [
          -118.01512499610533,
          34.06139005797547
        ]
      }
    },
    {
      "type": "Feature",
      "properties": {
        "retailer": "Goat Global",
        "license": "C10-0001614-LIC",
        "address1": "1672 Myrtle Ave",
        "address2": "",
        "city": "Eureka",
        "state": "CA",
        "zip": "95501",
        "directionUrl": "https://maps.app.goo.gl/NQTEYUxZZpUR8ri9A",
        "storeUrl": "https://weedmaps.com/dispensaries/goat-global?filter%5Bmatch%5D=wizard-trees"
      },
      "geometry": {
        "type": "Point",
        "coordinates": [
          -124.13601214272464,
          40.794122378241504
        ]
      }
    },
    {
      "type": "Feature",
      "properties": {
        "retailer": "The Bright Spot",
        "license": "C10-0000961-LIC",
        "address1": "1990 Walters Ct",
        "address2": "",
        "city": "Fairfield",
        "state": "CA",
        "zip": "94533",
        "directionUrl": "https://maps.app.goo.gl/4WyhpE4aTFniiT1ZA",
        "storeUrl": "https://weedmaps.com/dispensaries/the-bright-spot?filter%5Bmatch%5D=wizard-trees"
      },
      "geometry": {
        "type": "Point",
        "coordinates": [
          -121.98969827955678,
          38.27050906040938
        ]
      }
    },
    {
      "type": "Feature",
      "properties": {
        "retailer": "The Showcase",
        "license": "C10-0001246-LIC",
        "address1": "101 Grobric Ct",
        "address2": "",
        "city": "Fairfield",
        "state": "CA",
        "zip": "94534",
        "directionUrl": "https://maps.app.goo.gl/ZEQkPtMs5KXmqQYz7",
        "storeUrl": "https://weedmaps.com/dispensaries/showcase?filter%5Bmatch%5D=wizard-trees"
      },
      "geometry": {
        "type": "Point",
        "coordinates": [
          -122.13621717955681,
          38.21660122076086
        ]
      }
    },
    {
      "type": "Feature",
      "properties": {
        "retailer": "Catalyst Hawthorne",
        "license": "C10-0001427-LIC",
        "address1": "14115 Crenshaw Blvd",
        "address2": "",
        "city": "Hawthorne",
        "state": "CA",
        "zip": "90250",
        "directionUrl": "https://maps.app.goo.gl/CpeJ5s9AsJCjH3DQ9",
        "storeUrl": "https://weedmaps.com/dispensaries/catalyst-cannabis-dispensary-hawthorne?filter%5Bmatch%5D=wizard-trees"
      },
      "geometry": {
        "type": "Point",
        "coordinates": [
          -118.3270846600693,
          33.90301419227668
        ]
      }
    },
    {
      "type": "Feature",
      "properties": {
        "retailer": "Dr. Greenthumb's La Mesa",
        "license": "C10-0000422-LIC",
        "address1": "8760 Campo Road",
        "address2": "",
        "city": "La Mesa",
        "state": "CA",
        "zip": "91941",
        "directionUrl": "https://maps.app.goo.gl/DhAjfCxZn8yPV41u5",
        "storeUrl": "https://weedmaps.com/dispensaries/dr-greenthumbs-san-diego?filter%5Bmatch%5D=wizard-trees"
      },
      "geometry": {
        "type": "Point",
        "coordinates": [
          -117.00894404290561,
          32.75337142633836
        ]
      }
    },
    {
      "type": "Feature",
      "properties": {
        "retailer": "Catalyst Cherry",
        "license": "C10-0000525-LIC",
        "address1": "3170 Cherry Ave",
        "address2": "",
        "city": "Long Beach",
        "state": "CA",
        "zip": "90806",
        "directionUrl": "https://maps.app.goo.gl/TBvFU4Bgq3F9XXTZA",
        "storeUrl": "https://weedmaps.com/dispensaries/catalyst-cherry?filter%5Bmatch%5D=wizard-trees"
      },
      "geometry": {
        "type": "Point",
        "coordinates": [
          -118.16661569305123,
          33.81518005185605
        ]
      }
    },
    {
      "type": "Feature",
      "properties": {
        "retailer": "Catalyst Pine",
        "license": "C10-0000801-LIC",
        "address1": "433 Pine Ave",
        "address2": "Unit 500",
        "city": "Long Beach",
        "state": "CA",
        "zip": "90802",
        "directionUrl": "https://maps.app.goo.gl/A6pPhfn5M9XvNc9m9",
        "storeUrl": "https://weedmaps.com/dispensaries/catalyst-pine-downtownlongbeach?filter%5Bmatch%5D=wizard-trees"
      },
      "geometry": {
        "type": "Point",
        "coordinates": [
          -118.19277250839197,
          33.77251225303821
        ]
      }
    },
    {
      "type": "Feature",
      "properties": {
        "retailer": "Catalyst Lynwood",
        "license": "C10-0001428-LIC",
        "address1": "5110 E Imperial Hwy",
        "address2": "",
        "city": "Lynwood",
        "state": "CA",
        "zip": "90262",
        "directionUrl": "https://maps.app.goo.gl/VVEf7rRuthzKoLc7A",
        "storeUrl": "https://weedmaps.com/dispensaries/catalyst-lynwood?filter%5Bmatch%5D=wizard-trees"
      },
      "geometry": {
        "type": "Point",
        "coordinates": [
          -118.18282157116481,
          33.93067377333173
        ]
      }
    },
    {
      "type": "Feature",
      "properties": {
        "retailer": "Higher Ground Lynwood",
        "license": "C10-0001420-LIC",
        "address1": "11510 Alameda St",
        "address2": "",
        "city": "Lynwood",
        "state": "CA",
        "zip": "90262",
        "directionUrl": "https://maps.app.goo.gl/Xn4HmZnfVhsXHvUZ9",
        "storeUrl": "https://weedmaps.com/dispensaries/higher-ground-lynwood?filter%5Bmatch%5D=wizard-trees"
      },
      "geometry": {
        "type": "Point",
        "coordinates": [
          -118.22512658585562,
          33.93067151813415
        ]
      }
    },
    {
      "type": "Feature",
      "properties": {
        "retailer": "Velvet Cannabis Martinez",
        "license": "C10-0000667-LIC",
        "address1": "4808 Sunrise Dr",
        "address2": "Suite A",
        "city": "Martinez",
        "state": "CA",
        "zip": "94553",
        "directionUrl": "https://maps.app.goo.gl/4qanGpsRPyDizqdu6",
        "storeUrl": "https://weedmaps.com/dispensaries/velvet-cannabis?filter%5Bmatch%5D=wizard-trees"
      },
      "geometry": {
        "type": "Point",
        "coordinates": [
          -122.08176372883591,
          38.000649715556484
        ]
      }
    },
    {
      "type": "Feature",
      "properties": {
        "retailer": "CV Distro",
        "license": "C11-0001957-LIC",
        "address1": "4213 McHenry Ave",
        "address2": "",
        "city": "Modesto",
        "state": "CA",
        "zip": "95356",
        "directionUrl": "https://maps.app.goo.gl/ZJXwCR4nqpgcGGp9A",
        "storeUrl": ""
      },
      "geometry": {
        "type": "Point",
        "coordinates": [
          -120.99505714423643,
          37.70067911571444
        ]
      }
    },
    {
      "type": "Feature",
      "properties": {
        "retailer": "Kush Alley Retail",
        "license": "C10-0000093-LIC",
        "address1": "16733 Schoenborn St",
        "address2": "",
        "city": "North Hills",
        "state": "CA",
        "zip": "91343",
        "directionUrl": "https://maps.app.goo.gl/Kk3LQ1cKK12zEbWJ9",
        "storeUrl": "https://weedmaps.com/dispensaries/kush-alley-3?filter%5Bmatch%5D=wizard-trees"
      },
      "geometry": {
        "type": "Point",
        "coordinates": [
          -118.49778677753399,
          34.222900960516874
        ]
      }
    },
    {
      "type": "Feature",
      "properties": {
        "retailer": "Swish Cannabis [VALLEY OPPORTUNITIES LLC]",
        "license": "C10-0000976-LIC",
        "address1": "10701 Burbank Blvd W",
        "address2": "",
        "city": "North Hollywood",
        "state": "CA",
        "zip": "91601",
        "directionUrl": "https://maps.app.goo.gl/ZJZfDjWRHw5qRaec7",
        "storeUrl": "https://weedmaps.com/dispensaries/swish-cannabis?filter%5Bmatch%5D=wizard-trees"
      },
      "geometry": {
        "type": "Point",
        "coordinates": [
          -118.36390093520576,
          34.17263614145538
        ]
      }
    },
    {
      "type": "Feature",
      "properties": {
        "retailer": "The Ounce [NEWCORP ACQUISITION LLC]",
        "license": "C10-0001218-LIC",
        "address1": "11032 Magnolia Blvd",
        "address2": "",
        "city": "North Hollywood",
        "state": "CA",
        "zip": "91601",
        "directionUrl": "https://maps.app.goo.gl/CM33UkKPt3rsNsLv6",
        "storeUrl": "https://weedmaps.com/dispensaries/theounce?filter%5Bmatch%5D=wizard-trees"
      },
      "geometry": {
        "type": "Point",
        "coordinates": [
          -118.37171131349233,
          34.16479662785047
        ]
      }
    },
    {
      "type": "Feature",
      "properties": {
        "retailer": "Kanna [KANNA INC]",
        "license": "C10-0000419-LIC",
        "address1": "2019 Macarthur Blvd",
        "address2": "",
        "city": "Oakland",
        "state": "CA",
        "zip": "94602",
        "directionUrl": "https://maps.app.goo.gl/BejPVedRzhGxNcog6",
        "storeUrl": "https://weedmaps.com/dispensaries/kanna?filter%5Bmatch%5D=wizard-trees"
      },
      "geometry": {
        "type": "Point",
        "coordinates": [
          -122.21826835240057,
          37.80089219229614
        ]
      }
    },
    {
      "type": "Feature",
      "properties": {
        "retailer": "Catalyst Palm Desert",
        "license": "C10-0000937-LIC",
        "address1": "39420 Berkey Dr",
        "address2": "",
        "city": "Palm Desert",
        "state": "CA",
        "zip": "92211",
        "directionUrl": "https://maps.app.goo.gl/VMx1GjB3pJ66yKhz5",
        "storeUrl": "https://weedmaps.com/dispensaries/catalyst-indio?filter%5Bmatch%5D=wizard-trees"
      },
      "geometry": {
        "type": "Point",
        "coordinates": [
          -116.30321139472882,
          33.762512332855835
        ]
      }
    },
    {
      "type": "Feature",
      "properties": {
        "retailer": "Catalyst Pomona",
        "license": "C10-0001405-LIC",
        "address1": "1958 S Garey Ave",
        "address2": "",
        "city": "Pomona",
        "state": "CA",
        "zip": "91766",
        "directionUrl": "https://maps.app.goo.gl/ViqA3GkAa2pmoYrS7",
        "storeUrl": ""
      },
      "geometry": {
        "type": "Point",
        "coordinates": [
          -117.74246193520578,
          34.062398380736326
        ]
      }
    },
    {
      "type": "Feature",
      "properties": {
        "retailer": "Higher Ground San Bernardino",
        "license": "C10-0001021-LIC",
        "address1": "240 Redlands Blvd E",
        "address2": "",
        "city": "San Bernardino",
        "state": "CA",
        "zip": "92408",
        "directionUrl": "https://maps.app.goo.gl/AvoTfby3WX9ee72JA",
        "storeUrl": "https://weedmaps.com/dispensaries/higherground-san-bernardino?filter%5Bmatch%5D=wizard-trees"
      },
      "geometry": {
        "type": "Point",
        "coordinates": [
          -117.28080765240058,
          34.06350873142659
        ]
      }
    },
    {
      "type": "Feature",
      "properties": {
        "retailer": "Buzz Cannabis Mission Valley",
        "license": "C10-0001094-LIC",
        "address1": "2605 Camino Del Rio S",
        "address2": "",
        "city": "San Diego",
        "state": "CA",
        "zip": "92108",
        "directionUrl": "https://maps.app.goo.gl/kfqY4s4afeMjfD6g9",
        "storeUrl": "https://weedmaps.com/dispensaries/buzz-mission-valley?filter%5Bmatch%5D=wizard-trees"
      },
      "geometry": {
        "type": "Point",
        "coordinates": [
          -117.13655723919088,
          32.76914630732558
        ]
      }
    },
    {
      "type": "Feature",
      "properties": {
        "retailer": "Bonafide",
        "license": "C10-0001283-LIC",
        "address1": "7570 San Fernando Rd",
        "address2": "",
        "city": "Sun Valley",
        "state": "CA",
        "zip": "91352",
        "directionUrl": "https://maps.app.goo.gl/hBGXxPbnRp8UzdRM6",
        "storeUrl": "https://weedmaps.com/dispensaries/bonafide-group-collective?filter%5Bmatch%5D=wizard-trees"
      },
      "geometry": {
        "type": "Point",
        "coordinates": [
          -118.35351205054936,
          34.20940129049584
        ]
      }
    },
    {
      "type": "Feature",
      "properties": {
        "retailer": "Vallejo Relief Center",
        "license": "C11-0001480-LIC",
        "address1": "315 Henry St",
        "address2": "",
        "city": "Vallejo",
        "state": "CA",
        "zip": "94591",
        "directionUrl": "https://maps.app.goo.gl/kLZcMnob7ou19R4XA",
        "storeUrl": "https://weedmaps.com/dispensaries/vallejo-relief-center-3?filter%5Bmatch%5D=wizard-trees"
      },
      "geometry": {
        "type": "Point",
        "coordinates": [
          -122.2278430878572,
          38.11194008899737
        ]
      }
    },
    {
      "type": "Feature",
      "properties": {
        "retailer": "The Cake House Vista",
        "license": "C10-0000769-LIC",
        "address1": "1275 S Santa Fe Ave",
        "address2": "Suite 103",
        "city": "Vista",
        "state": "CA",
        "zip": "92083",
        "directionUrl": "https://maps.app.goo.gl/cQzJF6jzwmMbS8eD7",
        "storeUrl": "https://weedmaps.com/dispensaries/the-cake-house?filter%5Bmatch%5D=wizard-trees"
      },
      "geometry": {
        "type": "Point",
        "coordinates": [
          -117.22573047938523,
          33.18759418497108
        ]
      }
    },
    {
      "type": "Feature",
      "properties": {
        "retailer": "Nature's Story",
        "license": "C10-0001023-LIC",
        "address1": "6455 Topanga Canyon Blvd N",
        "address2": "",
        "city": "Woodland Hills",
        "state": "CA",
        "zip": "91303",
        "directionUrl": "https://maps.app.goo.gl/GCQhfXCyEMfZBi8h9",
        "storeUrl": ""
      },
      "geometry": {
        "type": "Point",
        "coordinates": [
          -118.60615414432186,
          34.18823869541415
        ]
      }
    },
    {
      "type": "Feature",
      "properties": {
        "retailer": "The Vault Woodland Hills",
        "license": "C10-0000458-LIC",
        "address1": "22815 Ventura Blvd",
        "address2": "Unit 291",
        "city": "Woodland Hills",
        "state": "CA",
        "zip": "91364",
        "directionUrl": "https://maps.app.goo.gl/vsgy129E9ZvXxkcv8",
        "storeUrl": "https://weedmaps.com/dispensaries/the-vault-woodland-hills?filter%5Bmatch%5D=wizard-trees"
      },
      "geometry": {
        "type": "Point",
        "coordinates": [
          -118.6238891154863,
          34.16623667632304
        ]
      }
    },
    {
      "type": "Feature",
      "properties": {
        "retailer": "The Flowery Dispensary Miami",
        "license": "",
        "address1": "11900 Biscayne Blvd",
        "address2": "Suite 108",
        "city": "Miami",
        "state": "FL",
        "zip": "33181",
        "directionUrl": "https://maps.app.goo.gl/Uu5UUsHRZHSvnpEd9",
        "storeUrl": "https://theflowery.co/dispensary/n-miami"
      },
      "geometry": {
        "type": "Point",
        "coordinates": [
          -80.16511369051301,
          25.88612189339028
        ]
      }
    },
    {
      "type": "Feature",
      "properties": {
        "retailer": "The Flowery Inverness",
        "license": "",
        "address1": "3129 E Gulf to Lake Hwy",
        "address2": "",
        "city": "Inverness",
        "state": "FL",
        "zip": "34453",
        "directionUrl": "https://maps.app.goo.gl/kZ5Ftrn2nEzBVgfd8",
        "storeUrl": "https://theflowery.co/dispensary/inverness"
      },
      "geometry": {
        "type": "Point",
        "coordinates": [
          -82.38226026157281,
          28.852335350292304
        ]
      }
    },
    {
      "type": "Feature",
      "properties": {
        "retailer": "The Flowery Dispensary Clearwater",
        "license": "",
        "address1": "1201 N Highland Ave",
        "address2": "",
        "city": "Clearwater",
        "state": "FL",
        "zip": "33755",
        "directionUrl": "https://maps.app.goo.gl/C2993mA2qTsTKzty8",
        "storeUrl": "https://theflowery.co/dispensary/clearwater"
      },
      "geometry": {
        "type": "Point",
        "coordinates": [
          -82.77511291742569,
          27.978228636714483
        ]
      }
    },
    {
      "type": "Feature",
      "properties": {
        "retailer": "The Flowery Jacksonville",
        "license": "",
        "address1": "8669 Baymeadows Rd",
        "address2": "",
        "city": "Jacksonville",
        "state": "FL",
        "zip": "32256",
        "directionUrl": "https://maps.app.goo.gl/2hnmUVJ7faGtUCxa8",
        "storeUrl": "https://theflowery.co/dispensary/jacksonville"
      },
      "geometry": {
        "type": "Point",
        "coordinates": [
          -81.57778653083484,
          30.22135432869535
        ]
      }
    },
    {
      "type": "Feature",
      "properties": {
        "retailer": "The Flowery Dispensary Ocala",
        "license": "",
        "address1": "1704 S Pine Ave",
        "address2": "",
        "city": "Ocala",
        "state": "FL",
        "zip": "34471",
        "directionUrl": "https://maps.app.goo.gl/Sj4pKiqNPUoPWhJm9",
        "storeUrl": "https://theflowery.co/dispensary/ocala"
      },
      "geometry": {
        "type": "Point",
        "coordinates": [
          -82.14022341738203,
          29.170814526023698
        ]
      }
    },
    {
      "type": "Feature",
      "properties": {
        "retailer": "The Flowery Dispensary Port Orange",
        "license": "",
        "address1": "3790 S Nova Rd",
        "address2": "",
        "city": "Port Orange",
        "state": "FL",
        "zip": "32129",
        "directionUrl": "https://maps.app.goo.gl/2qn5gogne86VFuDy8",
        "storeUrl": "https://theflowery.co/dispensary/port-orange"
      },
      "geometry": {
        "type": "Point",
        "coordinates": [
          -81.0067139750551,
          29.129912357426818
        ]
      }
    },
    {
      "type": "Feature",
      "properties": {
        "retailer": "The Flowery Dispensary Tallahassee",
        "license": "",
        "address1": "1968 W Tennessee St",
        "address2": "",
        "city": "Tallahassee",
        "state": "FL",
        "zip": "32304",
        "directionUrl": "https://maps.app.goo.gl/Hm8Ht1wj699XRk7k9",
        "storeUrl": "https://theflowery.co/dispensary/tallahassee"
      },
      "geometry": {
        "type": "Point",
        "coordinates": [
          -84.31683714616918,
          30.449509333630346
        ]
      }
    },
    {
      "type": "Feature",
      "properties": {
        "retailer": "The Flowery Venice",
        "license": "",
        "address1": "1763 Tamiami Trl",
        "address2": "",
        "city": "Venice",
        "state": "FL",
        "zip": "34293",
        "directionUrl": "https://maps.app.goo.gl/V8N9SuFH6LzKhw6E7",
        "storeUrl": "https://theflowery.co/dispensary/venice"
      },
      "geometry": {
        "type": "Point",
        "coordinates": [
          -82.4207171732789,
          27.069392285359122
        ]
      }
    },
    {
      "type": "Feature",
      "properties": {
        "retailer": "The Flowery Dispensary Hollywood",
        "license": "",
        "address1": "1113 S 30th Ave",
        "address2": "",
        "city": "Hollywood",
        "state": "FL",
        "zip": "33020",
        "directionUrl": "https://maps.app.goo.gl/nNV1gGyvrpnRuVCw8",
        "storeUrl": "https://theflowery.co/dispensary/hollywood"
      },
      "geometry": {
        "type": "Point",
        "coordinates": [
          -80.16716737516595,
          26.001110027934047
        ]
      }
    },
    {
      "type": "Feature",
      "properties": {
        "retailer": "The Flowery West Palm Beach",
        "license": "",
        "address1": "5613 Okeechobee Blvd",
        "address2": "",
        "city": "West Palm Beach",
        "state": "FL",
        "zip": "33417",
        "directionUrl": "https://maps.app.goo.gl/W1ic39s7azgQUXg48",
        "storeUrl": "https://theflowery.co/dispensary/west-palm-beach"
      },
      "geometry": {
        "type": "Point",
        "coordinates": [
          -80.12961443096297,
          26.70818538859352
        ]
      }
    },
    {
      "type": "Feature",
      "properties": {
        "retailer": "The Flowery Orlando",
        "license": "",
        "address1": "8586 Orange Blossom Trl",
        "address2": "",
        "city": "Orlando",
        "state": "FL",
        "zip": "32809",
        "directionUrl": "https://maps.app.goo.gl/J27zzCuEf3Hz2KvB8",
        "storeUrl": "https://theflowery.co/dispensary/s-orlando"
      },
      "geometry": {
        "type": "Point",
        "coordinates": [
          -81.40445816343843,
          28.440307407243136
        ]
      }
    },
    {
      "type": "Feature",
      "properties": {
        "retailer": "The Flowery Dispensary Fort Myers",
        "license": "",
        "address1": "11620 S Cleveland Ave",
        "address2": "",
        "city": "Fort Myers",
        "state": "FL",
        "zip": "33907",
        "directionUrl": "https://maps.app.goo.gl/geS8aKb94Ki4YCA79",
        "storeUrl": "https://theflowery.co/dispensary/fort-myers"
      },
      "geometry": {
        "type": "Point",
        "coordinates": [
          -81.87250180398242,
          26.571036318352636
        ]
      }
    },
    {
      "type": "Feature",
      "properties": {
        "retailer": "The Flowery Melbourne",
        "license": "",
        "address1": "1755 Palm Bay Rd NE",
        "address2": "",
        "city": "Palm Bay",
        "state": "FL",
        "zip": "32905",
        "directionUrl": "https://maps.app.goo.gl/MimzZrjPWjTn9oqV9",
        "storeUrl": "https://theflowery.co/dispensary/melbourne"
      },
      "geometry": {
        "type": "Point",
        "coordinates": [
          -80.61943133091629,
          28.035894338082212
        ]
      }
    },
    {
      "type": "Feature",
      "properties": {
        "retailer": "The Flowery",
        "license": "",
        "address1": "7985 S US Hwy 17 92",
        "address2": "",
        "city": "Fern Park",
        "state": "FL",
        "zip": "32730",
        "directionUrl": "https://maps.app.goo.gl/ciguhCj5QELdRoSr8",
        "storeUrl": "https://theflowery.co/dispensary/north-orlando-1"
      },
      "geometry": {
        "type": "Point",
        "coordinates": [
          -81.34869291740122,
          28.651387673986267
        ]
      }
    },
    {
      "type": "Feature",
      "properties": {
        "retailer": "The Flowery Dispensary Orange Park",
        "license": "",
        "address1": "491 Blanding Blvd",
        "address2": "",
        "city": "Orange Park",
        "state": "FL",
        "zip": "32073",
        "directionUrl": "https://maps.app.goo.gl/uJZw3FqTn24FqV6G6",
        "storeUrl": "https://theflowery.co/dispensary/orange-park"
      },
      "geometry": {
        "type": "Point",
        "coordinates": [
          -81.74683450570255,
          30.158042268968337
        ]
      }
    },
    {
      "type": "Feature",
      "properties": {
        "retailer": "Buzz Cannabis Sorrento Valley",
        "license": "",
        "address1": "10715 Sorrento Valley Rd",
        "address2": "",
        "city": "San Diego",
        "state": "CA",
        "zip": "92121",
        "directionUrl": "https://maps.app.goo.gl/8DH6egipHyHNZEvN7",
        "storeUrl": "https://weedmaps.com/dispensaries/buzz-cannabis?filter%5Bmatch%5D=wizard-trees"
      },
      "geometry": {
        "type": "Point",
        "coordinates": [
          -117.22037665816512,
          32.89899191393538
        ]
      }
    },
    {
      "type": "Feature",
      "properties": {
        "retailer": "Cali Love Willows",
        "license": "",
        "address1": "157 N Butte St",
        "address2": "",
        "city": "Willows",
        "state": "CA",
        "zip": "95988",
        "directionUrl": "https://maps.app.goo.gl/LNDxevnMDZDQWW5t6",
        "storeUrl": "https://weedmaps.com/dispensaries/cali-love-willows?filter%5Bmatch%5D=wizard-trees"
      },
      "geometry": {
        "type": "Point",
        "coordinates": [
          -122.19559730219174,
          39.52170574061695
        ]
      }
    },
    {
      "type": "Feature",
      "properties": {
        "retailer": "Nug Cannavine Belmont",
        "license": "",
        "address1": "1538 El Camino Real Suite C",
        "address2": "",
        "city": "Belmont",
        "state": "CA",
        "zip": "94002",
        "directionUrl": "https://maps.app.goo.gl/GUwBDaRajgf1yoH18",
        "storeUrl": "https://weedmaps.com/dispensaries/nug-cannavine?filter%5Bmatch%5D=wizard-trees"
      },
      "geometry": {
        "type": "Point",
        "coordinates": [
          -122.27062708874797,
          37.51565313174926
        ]
      }
    },
    {
      "type": "Feature",
      "properties": {
        "retailer": "Cannavine Distro",
        "license": "",
        "address1": "1230 Airport Park Blvd",
        "address2": "Suite C",
        "city": "Ukiah",
        "state": "CA",
        "zip": "95482",
        "directionUrl": "https://maps.app.goo.gl/nwLEDbJpUF32WDDw7",
        "storeUrl": "https://weedmaps.com/dispensaries/cannavine?filter%5Bmatch%5D=wizard-trees"
      },
      "geometry": {
        "type": "Point",
        "coordinates": [
          -123.19946300803086,
          39.15917978240136
        ]
      }
    },
    {
      "type": "Feature",
      "properties": {
        "retailer": "Catalyst Halladay St",
        "license": "",
        "address1": "3122 Halladay St",
        "address2": "",
        "city": "Santa Ana",
        "state": "CA",
        "zip": "92705",
        "directionUrl": "https://maps.app.goo.gl/JSXwULLBYVJYXjFx6",
        "storeUrl": "https://weedmaps.com/dispensaries/oc3-collective?filter%5Bmatch%5D=wizard-trees"
      },
      "geometry": {
        "type": "Point",
        "coordinates": [
          -117.86010307058308,
          33.70540738743738
        ]
      }
    },
    {
      "type": "Feature",
      "properties": {
        "retailer": "Catalyst Lancaster",
        "license": "",
        "address1": "42020 4th St E",
        "address2": "",
        "city": "Lancaster",
        "state": "CA",
        "zip": "93535",
        "directionUrl": "https://maps.app.goo.gl/akLLsEMpdfh3v3V27",
        "storeUrl": "https://weedmaps.com/dispensaries/catalyst-lancaster?filter%5Bmatch%5D=wizard-trees"
      },
      "geometry": {
        "type": "Point",
        "coordinates": [
          -118.12279791764976,
          34.64659042172238
        ]
      }
    },
    {
      "type": "Feature",
      "properties": {
        "retailer": "Catalyst Mid City",
        "license": "",
        "address1": "3318 Venice Blvd",
        "address2": "",
        "city": "Los Angeles",
        "state": "CA",
        "zip": "90019",
        "directionUrl": "https://maps.app.goo.gl/B6VKfLh9VUg16T9f7",
        "storeUrl": "https://weedmaps.com/dispensaries/catalyst-mid-city?filter%5Bmatch%5D=wizard-trees"
      },
      "geometry": {
        "type": "Point",
        "coordinates": [
          -118.32075464464837,
          34.043586714557
        ]
      }
    },
    {
      "type": "Feature",
      "properties": {
        "retailer": "Catalyst Oxnard",
        "license": "",
        "address1": "4749 S Rose Ave",
        "address2": "",
        "city": "Oxnard",
        "state": "CA",
        "zip": "93033",
        "directionUrl": "https://maps.app.goo.gl/JUDeTTz3FTMAWWuPA",
        "storeUrl": "https://weedmaps.com/dispensaries/catalyst-oxnard?filter%5Bmatch%5D=wizard-trees"
      },
      "geometry": {
        "type": "Point",
        "coordinates": [
          -119.16077591581009,
          34.15709006697124
        ]
      }
    },
    {
      "type": "Feature",
      "properties": {
        "retailer": "Catalyst Pomona",
        "license": "",
        "address1": "456 E Holt Ave",
        "address2": "",
        "city": "Pomona",
        "state": "CA",
        "zip": "91767",
        "directionUrl": "https://maps.app.goo.gl/25oV5qgaBj8SdNfY6",
        "storeUrl": "https://weedmaps.com/dispensaries/catalyst-pomona?filter%5Bmatch%5D=wizard-trees"
      },
      "geometry": {
        "type": "Point",
        "coordinates": [
          -117.74251560231956,
          34.06268725968179
        ]
      }
    },
    {
      "type": "Feature",
      "properties": {
        "retailer": "Catalyst South Figueroa",
        "license": "",
        "address1": "10020 Figueroa St S",
        "address2": "",
        "city": "Los Angeles",
        "state": "CA",
        "zip": "90003",
        "directionUrl": "https://maps.app.goo.gl/4kb5xW6rPqpCd1nj7",
        "storeUrl": "https://weedmaps.com/dispensaries/catalyst-south-figueroa?filter%5Bmatch%5D=wizard-trees"
      },
      "geometry": {
        "type": "Point",
        "coordinates": [
          -118.28226177533664,
          33.94506627976195
        ]
      }
    },
    {
      "type": "Feature",
      "properties": {
        "retailer": "Catalyst Van Nuys",
        "license": "",
        "address1": "8162 Orion Ave",
        "address2": "",
        "city": "Van Nuys",
        "state": "CA",
        "zip": "91406",
        "directionUrl": "https://maps.app.goo.gl/U72pKBiXZ9wdEK5HA",
        "storeUrl": "https://weedmaps.com/dispensaries/catalyst-van-nuys?filter%5Bmatch%5D=wizard-trees"
      },
      "geometry": {
        "type": "Point",
        "coordinates": [
          -118.4719452158088,
          34.21919251867671
        ]
      }
    },
    {
      "type": "Feature",
      "properties": {
        "retailer": "Cannabis Buyers' Club of Berkeley",
        "license": "",
        "address1": "3033 Shattuck Ave",
        "address2": "",
        "city": "Berkeley",
        "state": "CA",
        "zip": "94705",
        "directionUrl": "https://maps.app.goo.gl/iG11X6Zo5su7RNY4A",
        "storeUrl": "https://weedmaps.com/dispensaries/cbcb?filter%5Bmatch%5D=wizard-trees"
      },
      "geometry": {
        "type": "Point",
        "coordinates": [
          -122.26600745268345,
          37.854285628484305
        ]
      }
    },
    {
      "type": "Feature",
      "properties": {
        "retailer": "Desert Kush",
        "license": "",
        "address1": "36633 Cathedral Canyon Dr",
        "address2": "",
        "city": "Cathedral City",
        "state": "CA",
        "zip": "92234",
        "directionUrl": "https://maps.app.goo.gl/wPLqB13iE6JYR1Bf7",
        "storeUrl": "https://weedmaps.com/dispensaries/desert-kush-26?filter%5Bmatch%5D=wizard-trees"
      },
      "geometry": {
        "type": "Point",
        "coordinates": [
          -116.46703194465384,
          33.78268961168327
        ]
      }
    },
    {
      "type": "Feature",
      "properties": {
        "retailer": "Elevated SF",
        "license": "",
        "address1": "2442 Bayshore Blvd",
        "address2": "",
        "city": "San Francisco",
        "state": "CA",
        "zip": "94134",
        "directionUrl": "https://maps.app.goo.gl/qQNuynragx49Wbgg9",
        "storeUrl": "https://weedmaps.com/dispensaries/elevated-sf-2?filter%5Bmatch%5D=wizard-trees"
      },
      "geometry": {
        "type": "Point",
        "coordinates": [
          -122.40419426969981,
          37.71100027582766
        ]
      }
    },
    {
      "type": "Feature",
      "properties": {
        "retailer": "Farmhouse Artisan Market",
        "license": "",
        "address1": "1333 N McDowell Blvd",
        "address2": "Unit F",
        "city": "Petaluma",
        "state": "CA",
        "zip": "94954",
        "directionUrl": "https://maps.app.goo.gl/5NJB63PXmRnNxwUi7",
        "storeUrl": "https://weedmaps.com/dispensaries/farmhouse-artisan-market?filter%5Bmatch%5D=wizard-trees"
      },
      "geometry": {
        "type": "Point",
        "coordinates": [
          -122.66400438687988,
          38.27191184788582
        ]
      }
    },
    {
      "type": "Feature",
      "properties": {
        "retailer": "Flame Dispensary",
        "license": "",
        "address1": "2515 W 10th St",
        "address2": "",
        "city": "Antioch",
        "state": "CA",
        "zip": "94509",
        "directionUrl": "https://maps.app.goo.gl/Jkb25vw9gVouJYgm6",
        "storeUrl": "https://weedmaps.com/dispensaries/flame-antioch?filter%5Bmatch%5D=wizard-trees"
      },
      "geometry": {
        "type": "Point",
        "coordinates": [
          -121.83645508576272,
          38.02062239632688
        ]
      }
    },
    {
      "type": "Feature",
      "properties": {
        "retailer": "Green Bean",
        "license": "",
        "address1": "515 Naranjo Blvd W",
        "address2": "",
        "city": "Woodlake",
        "state": "CA",
        "zip": "93286",
        "directionUrl": "https://maps.app.goo.gl/EAvTAjZjEzgqPirF9",
        "storeUrl": "https://weedmaps.com/dispensaries/green-bean-pharm-3-2?filter%5Bmatch%5D=wizard-trees"
      },
      "geometry": {
        "type": "Point",
        "coordinates": [
          -119.10512816828044,
          36.413605643983196
        ]
      }
    },
    {
      "type": "Feature",
      "properties": {
        "retailer": "HerbNJoy Hanford",
        "license": "",
        "address1": "102 Douty St S",
        "address2": "",
        "city": "Hanford",
        "state": "CA",
        "zip": "93230",
        "directionUrl": "https://maps.app.goo.gl/dxd565aZviCrURM56",
        "storeUrl": "https://weedmaps.com/dispensaries/herbnjoy-hanford?filter%5Bmatch%5D=wizard-trees"
      },
      "geometry": {
        "type": "Point",
        "coordinates": [
          -119.64542780226891,
          36.324566931718834
        ]
      }
    },
    {
      "type": "Feature",
      "properties": {
        "retailer": "Marina Greens",
        "license": "",
        "address1": "3109 Fillmore St",
        "address2": "",
        "city": "San Francisco",
        "state": "CA",
        "zip": "94123",
        "directionUrl": "https://maps.app.goo.gl/U4eN7EcRh1VbqqxK6",
        "storeUrl": "https://weedmaps.com/dispensaries/marina-greens?filter%5Bmatch%5D=wizard-trees"
      },
      "geometry": {
        "type": "Point",
        "coordinates": [
          -122.43600677524886,
          37.79837470242677
        ]
      }
    },
    {
      "type": "Feature",
      "properties": {
        "retailer": "NUG X Sundial Collective",
        "license": "",
        "address1": "1852 Buenaventura Blvd",
        "address2": "",
        "city": "Redding",
        "state": "CA",
        "zip": "96001",
        "directionUrl": "https://maps.app.goo.gl/kXeh4MzMrcKGxcXZ7",
        "storeUrl": "https://weedmaps.com/dispensaries/nug-sundial?filter%5Bmatch%5D=wizard-trees"
      },
      "geometry": {
        "type": "Point",
        "coordinates": [
          -122.39621374449399,
          40.55605504035403
        ]
      }
    },
    {
      "type": "Feature",
      "properties": {
        "retailer": "Rebud North Hollywood",
        "license": "",
        "address1": "7117 Laurel Canyon Blvd",
        "address2": "",
        "city": "North Hollywood",
        "state": "CA",
        "zip": "91605",
        "directionUrl": "https://maps.app.goo.gl/FgujnQQn2rhSgcYg7",
        "storeUrl": "https://weedmaps.com/dispensaries/rebud-north-hollywood?filter%5Bmatch%5D=wizard-trees"
      },
      "geometry": {
        "type": "Point",
        "coordinates": [
          -118.39738285813759,
          34.19993777202147
        ]
      }
    },
    {
      "type": "Feature",
      "properties": {
        "retailer": "Royal Healing Emporium",
        "license": "",
        "address1": "721 W Central Ave",
        "address2": "Unit D",
        "city": "Lompoc",
        "state": "CA",
        "zip": "93436",
        "directionUrl": "https://maps.app.goo.gl/HaaABtHuxj1hed8o8",
        "storeUrl": "https://weedmaps.com/dispensaries/royal-healing-emporium-lompoc?filter%5Bmatch%5D=wizard-trees"
      },
      "geometry": {
        "type": "Point",
        "coordinates": [
          -120.46573798696325,
          34.66131459416829
        ]
      }
    },
    {
      "type": "Feature",
      "properties": {
        "retailer": "Symbiotic Sacramento",
        "license": "",
        "address1": "114 Otto Circle",
        "address2": "Suite A",
        "city": "Sacramento",
        "state": "CA",
        "zip": "95822",
        "directionUrl": "https://maps.app.goo.gl/SYK9ojw9nVWLPJ8Y8",
        "storeUrl": "https://weedmaps.com/dispensaries/symbiotic-sacramento-south?filter%5Bmatch%5D=wizard-trees"
      },
      "geometry": {
        "type": "Point",
        "coordinates": [
          -121.47635827338128,
          38.508912526216456
        ]
      }
    },
    {
      "type": "Feature",
      "properties": {
        "retailer": "The Cake House El Monte",
        "license": "",
        "address1": "4728 Peck Rd",
        "address2": "",
        "city": "El Monte",
        "state": "CA",
        "zip": "91732",
        "directionUrl": "https://maps.app.goo.gl/RBGnBcTdiRikRSbC9",
        "storeUrl": "https://weedmaps.com/dispensaries/the-cake-house-el-monte?filter%5Bmatch%5D=wizard-trees"
      },
      "geometry": {
        "type": "Point",
        "coordinates": [
          -118.01489404464743,
          34.08977845119685
        ]
      }
    },
    {
      "type": "Feature",
      "properties": {
        "retailer": "The Cake House Wildomar",
        "license": "",
        "address1": "32475 Clinton Keith Rd",
        "address2": "Unit 104A",
        "city": "Wildomar",
        "state": "CA",
        "zip": "92595",
        "directionUrl": "https://maps.app.goo.gl/vGLncnsXzSRQW6seA",
        "storeUrl": "https://weedmaps.com/dispensaries/the-cake-house-clinton-keith?filter%5Bmatch%5D=wizard-trees"
      },
      "geometry": {
        "type": "Point",
        "coordinates": [
          -117.25317576000107,
          33.588831934528876
        ]
      }
    },
    {
      "type": "Feature",
      "properties": {
        "retailer": "The Hill",
        "license": "",
        "address1": "669 Mississippi St",
        "address2": "",
        "city": "San Francisco",
        "state": "CA",
        "zip": "94107",
        "directionUrl": "https://maps.app.goo.gl/8ySYmmqGxutisHkt6",
        "storeUrl": "https://weedmaps.com/dispensaries/the-hill?filter%5Bmatch%5D=wizard-trees"
      },
      "geometry": {
        "type": "Point",
        "coordinates": [
          -122.39399381572794,
          37.758278134530215
        ]
      }
    },
    {
      "type": "Feature",
      "properties": {
        "retailer": "Valley Pure Farmersville",
        "license": "",
        "address1": "293 W Noble Ave",
        "address2": "",
        "city": "Farmersville",
        "state": "CA",
        "zip": "93223",
        "directionUrl": "https://maps.app.goo.gl/M7CZx1739FvuSufk7",
        "storeUrl": "https://weedmaps.com/dispensaries/valley-pure-farmersville?filter%5Bmatch%5D=wizard-trees"
      },
      "geometry": {
        "type": "Point",
        "coordinates": [
          -119.20967328877624,
          36.325261796272336
        ]
      }
    },
    {
      "type": "Feature",
      "properties": {
        "retailer": "Valley Pure Tulare",
        "license": "",
        "address1": "1759 Retherford St",
        "address2": "",
        "city": "Tulare",
        "state": "CA",
        "zip": "93274",
        "directionUrl": "https://maps.app.goo.gl/e37szwV3nrYZekhU7",
        "storeUrl": "https://weedmaps.com/dispensaries/valley-pure-tulare?filter%5Bmatch%5D=wizard-trees"
      },
      "geometry": {
        "type": "Point",
        "coordinates": [
          -119.33747450227123,
          36.23025777822813
        ]
      }
    },
    {
      "type": "Feature",
      "properties": {
        "retailer": "Velvet Cannabis Eagle Rock",
        "license": "",
        "address1": "1118 Colorado Blvd",
        "address2": "",
        "city": "Los Angeles",
        "state": "CA",
        "zip": "90041",
        "directionUrl": "https://maps.app.goo.gl/fgzL1PtY14ypXeSm8",
        "storeUrl": "https://weedmaps.com/dispensaries/velvet-cannabis-dispensary-eagle-rock?filter%5Bmatch%5D=wizard-trees"
      },
      "geometry": {
        "type": "Point",
        "coordinates": [
          -118.19036791581058,
          34.13749371661665
        ]
      }
    },
    {
      "type": "Feature",
      "properties": {
        "retailer": "Velvet Cannabis Napa",
        "license": "",
        "address1": "2441 2nd St",
        "address2": "",
        "city": "Napa",
        "state": "CA",
        "zip": "94559",
        "directionUrl": "https://maps.app.goo.gl/ZA3tptuvfhMRKwZk9",
        "storeUrl": "https://weedmaps.com/dispensaries/velvet-cannabis-dispensary-napa?filter%5Bmatch%5D=wizard-trees"
      },
      "geometry": {
        "type": "Point",
        "coordinates": [
          -122.301434731058,
          38.29729623293169
        ]
      }
    },
    {
      "type": "Feature",
      "properties": {
        "retailer": "Zen Garden Sacramento",
        "license": "",
        "address1": "2201 Northgate Blvd",
        "address2": "Suite H",
        "city": "Sacramento",
        "state": "CA",
        "zip": "95833",
        "directionUrl": "https://maps.app.goo.gl/zH4p85tUbcRsrQtz9",
        "storeUrl": "https://weedmaps.com/dispensaries/zen-garden-sacramento?filter%5Bmatch%5D=wizard-trees"
      },
      "geometry": {
        "type": "Point",
        "coordinates": [
          -121.47642557337895,
          38.60754625045118
        ]
      }
    },
    {
      "type": "Feature",
      "properties": {
        "retailer": "Cloud 7",
        "license": "",
        "address1": "486 7th Street",
        "address2": "",
        "city": "Oakland",
        "state": "CA",
        "zip": "94607",
        "directionUrl": "https://maps.app.goo.gl/f32Msujt1pv2NBaU8",
        "storeUrl": "https://weedmaps.com/deliveries/cloud-7-3"
      },
      "geometry": {
        "type": "Point",
        "coordinates": [
          -122.27494321349268,
          37.800120190505076
        ]
      }
    },
    {
      "type": "Feature",
      "properties": {
        "retailer": "Fast Flavors [KWIKI BUD LLC]",
        "license": "C9-0000431-LIC",
        "address1": "414 Lesser St",
        "address2": "Suite 309",
        "city": "Oakland",
        "state": "CA",
        "zip": "94601",
        "directionUrl": "https://maps.app.goo.gl/G66RNGJCVzRdeGr98",
        "storeUrl": "https://weedmaps.com/deliveries/fast-flavors-6"
      },
      "geometry": {
        "type": "Point",
        "coordinates": [
          -122.2198347865073,
          37.7629829114327
        ]
      }
    },
    {
      "type": "Feature",
      "properties": {
        "retailer": "Purplez (Russell Ave Corp.)",
        "license": "C10-0001578-LIC",
        "address1": "817 Russell Ave",
        "address2": "Suite C",
        "city": "Santa Rosa",
        "state": "CA",
        "zip": "95403",
        "directionUrl": "https://maps.app.goo.gl/NZP5eKRm2VpJTfrF9",
        "storeUrl": "https://weedmaps.com/dispensaries/purplez?filter%5Bmatch%5D=wizard-trees"
      },
      "geometry": {
        "type": "Point",
        "coordinates": [
          -122.73071007941496,
          38.46965910018032
        ]
      }
    },
    {
      "type": "Feature",
      "properties": {
        "retailer": "Kushy Cannabis Delivery",
        "license": "",
        "address1": "1621 Navy Dr",
        "address2": "Bldg B1",
        "city": "Stockton",
        "state": "CA",
        "zip": "95206",
        "directionUrl": "https://maps.app.goo.gl/ATLzcsT1RWZcmLEG7",
        "storeUrl": "https://weedmaps.com/deliveries/kushy-cannabis-stockton?filter%5Bmatch%5D=wizard-trees"
      },
      "geometry": {
        "type": "Point",
        "coordinates": [
          -121.31082281534309,
          37.937861601320115
        ]
      }
    },
    {
      "type": "Feature",
      "properties": {
        "retailer": "Weeed Sylmar",
        "license": "",
        "address1": "13187 San Fernando Rd",
        "address2": "",
        "city": "Sylmar",
        "state": "CA",
        "zip": "91342",
        "directionUrl": "https://maps.app.goo.gl/av7nbSfbU6CZP4hE7",
        "storeUrl": "https://weedmaps.com/deliveries/weeed-11"
      },
      "geometry": {
        "type": "Point",
        "coordinates": [
          -118.47412631349269,
          34.31055354640553
        ]
      }
    }
  ]
}